{"fetched_at":"2026-07-21T17:53:05.430Z","source":"https://celestrak.org/NORAD/elements/gp.php?GROUP=oneweb&FORMAT=JSON","constellation":"oneweb","records":[{"OBJECT_NAME":"ONEWEB-0176","OBJECT_ID":"2021-031A","EPOCH":"2026-07-20T17:55:35.472576","CLASSIFICATION_TYPE":"U","MEAN_MOTION":13.14502927,"ECCENTRICITY":0.00021158,"INCLINATION":87.8963,"RA_OF_ASC_NODE":283.0131,"ARG_OF_PERICENTER":100.154,"MEAN_ANOMALY":259.9829,"EPHEMERIS_TYPE":0,"NORAD_CAT_ID":48210,"ELEMENT_SET_NO":999,"REV_AT_EPOCH":25272,"BSTAR":0.00041446545,"MEAN_MOTION_DOT":0.00000166,"MEAN_MOTION_DDOT":0},{"OBJECT_NAME":"ONEWEB-0184","OBJECT_ID":"2021-031B","EPOCH":"2026-07-20T22:45:35.858016","CLASSIFICATION_TYPE":"U","MEAN_MOTION":13.14502652,"ECCENTRICITY":0.00027604,"INCLINATION":87.8968,"RA_OF_ASC_NODE":282.9757,"ARG_OF_PERICENTER":110.1224,"MEAN_ANOMALY":250.0203,"EPHEMERIS_TYPE":0,"NORAD_CAT_ID":48211,"ELEMENT_SET_NO":999,"REV_AT_EPOCH":25272,"BSTAR":-0.00062936189,"MEAN_MOTION_DOT":-0.00000221,"MEAN_MOTION_DDOT":0},{"OBJECT_NAME":"ONEWEB-0179","OBJECT_ID":"2021-031C","EPOCH":"2026-07-21T03:20:49.411392","CLASSIFICATION_TYPE":"U","MEAN_MOTION":14.25575993,"ECCENTRICITY":0.02225334,"INCLINATION":87.8982,"RA_OF_ASC_NODE":278.802,"ARG_OF_PERICENTER":146.1581,"MEAN_ANOMALY":215.4046,"EPHEMERIS_TYPE":0,"NORAD_CAT_ID":48212,"ELEMENT_SET_NO":999,"REV_AT_EPOCH":25388,"BSTAR":0.000067846551,"MEAN_MOTION_DOT":0.0000023,"MEAN_MOTION_DDOT":0},{"OBJECT_NAME":"ONEWEB-0180","OBJECT_ID":"2021-031D","EPOCH":"2026-07-21T04:18:59.562720","CLASSIFICATION_TYPE":"U","MEAN_MOTION":13.14503472,"ECCENTRICITY":0.00024388,"INCLINATION":87.8973,"RA_OF_ASC_NODE":282.9267,"ARG_OF_PERICENTER":95.4318,"MEAN_ANOMALY":264.709,"EPHEMERIS_TYPE":0,"NORAD_CAT_ID":48213,"ELEMENT_SET_NO":999,"REV_AT_EPOCH":25268,"BSTAR":-0.00042042034,"MEAN_MOTION_DOT":-0.00000143,"MEAN_MOTION_DDOT":0},{"OBJECT_NAME":"ONEWEB-0218","OBJECT_ID":"2021-031E","EPOCH":"2026-07-20T17:53:17.923776","CLASSIFICATION_TYPE":"U","MEAN_MOTION":13.14503277,"ECCENTRICITY":0.00028904,"INCLINATION":87.8975,"RA_OF_ASC_NODE":283.0124,"ARG_OF_PERICENTER":105.1655,"MEAN_ANOMALY":254.9795,"EPHEMERIS_TYPE":0,"NORAD_CAT_ID":48214,"ELEMENT_SET_NO":999,"REV_AT_EPOCH":25278,"BSTAR":0.00015657779,"MEAN_MOTION_DOT":7.1e-7,"MEAN_MOTION_DDOT":0},{"OBJECT_NAME":"ONEWEB-0209","OBJECT_ID":"2021-031F","EPOCH":"2026-07-21T04:34:58.684800","CLASSIFICATION_TYPE":"U","MEAN_MOTION":13.14503833,"ECCENTRICITY":0.0002188,"INCLINATION":87.8961,"RA_OF_ASC_NODE":282.9375,"ARG_OF_PERICENTER":93.9517,"MEAN_ANOMALY":266.1863,"EPHEMERIS_TYPE":0,"NORAD_CAT_ID":48215,"ELEMENT_SET_NO":999,"REV_AT_EPOCH":25284,"BSTAR":-0.000076104058,"MEAN_MOTION_DOT":-1.5e-7,"MEAN_MOTION_DDOT":0},{"OBJECT_NAME":"ONEWEB-0198","OBJECT_ID":"2021-031G","EPOCH":"2026-07-21T04:12:20.407680","CLASSIFICATION_TYPE":"U","MEAN_MOTION":13.14503423,"ECCENTRICITY":0.00025139,"INCLINATION":87.8952,"RA_OF_ASC_NODE":282.9366,"ARG_OF_PERICENTER":96.6679,"MEAN_ANOMALY":263.4737,"EPHEMERIS_TYPE":0,"NORAD_CAT_ID":48216,"ELEMENT_SET_NO":999,"REV_AT_EPOCH":25295,"BSTAR":-0.00048813347,"MEAN_MOTION_DOT":-0.00000168,"MEAN_MOTION_DDOT":0},{"OBJECT_NAME":"ONEWEB-0189","OBJECT_ID":"2021-031H","EPOCH":"2026-07-21T04:30:24.841728","CLASSIFICATION_TYPE":"U","MEAN_MOTION":13.1450271,"ECCENTRICITY":0.00023596,"INCLINATION":87.8966,"RA_OF_ASC_NODE":282.9245,"ARG_OF_PERICENTER":97.7137,"MEAN_ANOMALY":262.4261,"EPHEMERIS_TYPE":0,"NORAD_CAT_ID":48217,"ELEMENT_SET_NO":999,"REV_AT_EPOCH":25269,"BSTAR":-0.00017183007,"MEAN_MOTION_DOT":-5.1e-7,"MEAN_MOTION_DDOT":0},{"OBJECT_NAME":"ONEWEB-0196","OBJECT_ID":"2021-031J","EPOCH":"2026-07-20T22:29:36.821472","CLASSIFICATION_TYPE":"U","MEAN_MOTION":13.14502722,"ECCENTRICITY":0.00021826,"INCLINATION":87.8965,"RA_OF_ASC_NODE":282.9829,"ARG_OF_PERICENTER":96.8832,"MEAN_ANOMALY":263.2546,"EPHEMERIS_TYPE":0,"NORAD_CAT_ID":48218,"ELEMENT_SET_NO":999,"REV_AT_EPOCH":25266,"BSTAR":-0.00056235404,"MEAN_MOTION_DOT":-0.00000196,"MEAN_MOTION_DDOT":0},{"OBJECT_NAME":"ONEWEB-0183","OBJECT_ID":"2021-031K","EPOCH":"2026-07-21T05:11:31.048512","CLASSIFICATION_TYPE":"U","MEAN_MOTION":13.14502634,"ECCENTRICITY":0.00018915,"INCLINATION":87.8961,"RA_OF_ASC_NODE":282.9247,"ARG_OF_PERICENTER":93.7508,"MEAN_ANOMALY":266.3838,"EPHEMERIS_TYPE":0,"NORAD_CAT_ID":48219,"ELEMENT_SET_NO":999,"REV_AT_EPOCH":25279,"BSTAR":0.00067676845,"MEAN_MOTION_DOT":0.00000264,"MEAN_MOTION_DDOT":0},{"OBJECT_NAME":"ONEWEB-0185","OBJECT_ID":"2021-031L","EPOCH":"2026-07-21T03:59:33.497952","CLASSIFICATION_TYPE":"U","MEAN_MOTION":13.14501086,"ECCENTRICITY":0.00020792,"INCLINATION":87.8968,"RA_OF_ASC_NODE":282.9304,"ARG_OF_PERICENTER":86.8888,"MEAN_ANOMALY":273.248,"EPHEMERIS_TYPE":0,"NORAD_CAT_ID":48220,"ELEMENT_SET_NO":999,"REV_AT_EPOCH":25271,"BSTAR":-0.00038913166,"MEAN_MOTION_DOT":-0.00000131,"MEAN_MOTION_DDOT":0},{"OBJECT_NAME":"ONEWEB-0187","OBJECT_ID":"2021-031M","EPOCH":"2026-07-20T18:22:47.066592","CLASSIFICATION_TYPE":"U","MEAN_MOTION":13.14502801,"ECCENTRICITY":0.00021513,"INCLINATION":87.8964,"RA_OF_ASC_NODE":283.0237,"ARG_OF_PERICENTER":95.0984,"MEAN_ANOMALY":265.0391,"EPHEMERIS_TYPE":0,"NORAD_CAT_ID":48221,"ELEMENT_SET_NO":999,"REV_AT_EPOCH":25267,"BSTAR":0.00023651012,"MEAN_MOTION_DOT":0.000001,"MEAN_MOTION_DDOT":0},{"OBJECT_NAME":"ONEWEB-0192","OBJECT_ID":"2021-031N","EPOCH":"2026-07-21T04:37:15.497472","CLASSIFICATION_TYPE":"U","MEAN_MOTION":13.14503469,"ECCENTRICITY":0.00021351,"INCLINATION":87.8957,"RA_OF_ASC_NODE":282.9288,"ARG_OF_PERICENTER":99.826,"MEAN_ANOMALY":260.3111,"EPHEMERIS_TYPE":0,"NORAD_CAT_ID":48222,"ELEMENT_SET_NO":999,"REV_AT_EPOCH":25264,"BSTAR":-0.000018999173,"MEAN_MOTION_DOT":6e-8,"MEAN_MOTION_DDOT":0},{"OBJECT_NAME":"ONEWEB-0219","OBJECT_ID":"2021-031P","EPOCH":"2026-07-20T22:38:43.346400","CLASSIFICATION_TYPE":"U","MEAN_MOTION":13.14501901,"ECCENTRICITY":0.00021849,"INCLINATION":87.8971,"RA_OF_ASC_NODE":282.9723,"ARG_OF_PERICENTER":92.4847,"MEAN_ANOMALY":267.6533,"EPHEMERIS_TYPE":0,"NORAD_CAT_ID":48223,"ELEMENT_SET_NO":999,"REV_AT_EPOCH":25281,"BSTAR":-0.0012208879,"MEAN_MOTION_DOT":-0.0000044,"MEAN_MOTION_DDOT":0},{"OBJECT_NAME":"ONEWEB-0202","OBJECT_ID":"2021-031Q","EPOCH":"2026-07-21T05:29:47.503392","CLASSIFICATION_TYPE":"U","MEAN_MOTION":13.1450281,"ECCENTRICITY":0.00027051,"INCLINATION":87.8965,"RA_OF_ASC_NODE":282.9273,"ARG_OF_PERICENTER":102.9287,"MEAN_ANOMALY":257.2145,"EPHEMERIS_TYPE":0,"NORAD_CAT_ID":48224,"ELEMENT_SET_NO":999,"REV_AT_EPOCH":25283,"BSTAR":0.00040509421,"MEAN_MOTION_DOT":0.00000163,"MEAN_MOTION_DDOT":0},{"OBJECT_NAME":"ONEWEB-0204","OBJECT_ID":"2021-031R","EPOCH":"2026-07-21T04:29:15.385632","CLASSIFICATION_TYPE":"U","MEAN_MOTION":13.14503381,"ECCENTRICITY":0.0001688,"INCLINATION":87.8963,"RA_OF_ASC_NODE":282.93,"ARG_OF_PERICENTER":90.0378,"MEAN_ANOMALY":270.0945,"EPHEMERIS_TYPE":0,"NORAD_CAT_ID":48225,"ELEMENT_SET_NO":999,"REV_AT_EPOCH":25272,"BSTAR":-0.00028130065,"MEAN_MOTION_DOT":-9.2e-7,"MEAN_MOTION_DDOT":0}]}
