ONEWEB-0176             
1 48210U 21031A   26201.74693834  .00000166  00000+0  41447-3 0  9992
2 48210  87.8963 283.0131 0002115 100.1540 259.9829 13.14502927252722
ONEWEB-0184             
1 48211U 21031B   26201.94833169 -.00000221  00000+0 -62936-3 0  9992
2 48211  87.8968 282.9757 0002760 110.1224 250.0203 13.14502652252729
ONEWEB-0179             
1 48212U 21031C   26202.13946078  .00000230  00000+0  67847-4 0  9994
2 48212  87.8982 278.8020 0222533 146.1581 215.4046 14.25575993253889
ONEWEB-0180             
1 48213U 21031D   26202.17985605 -.00000143  00000+0 -42042-3 0  9992
2 48213  87.8973 282.9267 0002438  95.4318 264.7090 13.14503472252686
ONEWEB-0218             
1 48214U 21031E   26201.74534634  .00000071  00000+0  15658-3 0  9998
2 48214  87.8975 283.0124 0002890 105.1655 254.9795 13.14503277252785
ONEWEB-0209             
1 48215U 21031F   26202.19095700 -.00000015  00000+0 -76104-4 0  9999
2 48215  87.8961 282.9375 0002188  93.9517 266.1863 13.14503833252844
ONEWEB-0198             
1 48216U 21031G   26202.17523620 -.00000168  00000+0 -48813-3 0  9999
2 48216  87.8952 282.9366 0002513  96.6679 263.4737 13.14503423252953
ONEWEB-0189             
1 48217U 21031H   26202.18778752 -.00000051  00000+0 -17183-3 0  9996
2 48217  87.8966 282.9245 0002359  97.7137 262.4261 13.14502710252694
ONEWEB-0196             
1 48218U 21031J   26201.93723173 -.00000196  00000+0 -56235-3 0  9997
2 48218  87.8965 282.9829 0002182  96.8832 263.2546 13.14502722252663
ONEWEB-0183             
1 48219U 21031K   26202.21633158  .00000264  00000+0  67677-3 0  9999
2 48219  87.8961 282.9247 0001891  93.7508 266.3838 13.14502634252790
ONEWEB-0185             
1 48220U 21031L   26202.16635993 -.00000131  00000+0 -38913-3 0  9990
2 48220  87.8968 282.9304 0002079  86.8888 273.2480 13.14501086252718
ONEWEB-0187             
1 48221U 21031M   26201.76582253  .00000100  00000+0  23651-3 0  9993
2 48221  87.8964 283.0237 0002151  95.0984 265.0391 13.14502801252673
ONEWEB-0192             
1 48222U 21031N   26202.19254048  .00000006  00000+0 -18999-4 0  9996
2 48222  87.8957 282.9288 0002135  99.8260 260.3111 13.14503469252647
ONEWEB-0219             
1 48223U 21031P   26201.94355725 -.00000440  00000+0 -12209-2 0  9992
2 48223  87.8971 282.9723 0002184  92.4847 267.6533 13.14501901252818
ONEWEB-0202             
1 48224U 21031Q   26202.22902203  .00000163  00000+0  40509-3 0  9999
2 48224  87.8965 282.9273 0002705 102.9287 257.2145 13.14502810252832
ONEWEB-0204             
1 48225U 21031R   26202.18698363 -.00000092  00000+0 -28130-3 0  9993
2 48225  87.8963 282.9300 0001688  90.0378 270.0945 13.14503381252722
